H1 CPF  1  HTS 2022  6 21 12  6721 larets           NONE
H2  0304206 5557    27944 2022 06 21  0  0  0 2022 06 26  0  0  0   180 1 1  0 0 0
H5  0.0560 
H9 
10 0 59755  69480.00000  0    1524822.944   -2689283.616    6347908.436
10 0 59755  69660.00000  0    1628114.186   -3871360.485    5676008.826
10 0 59755  69840.00000  0    1643102.055   -4914455.484    4796578.066
10 0 59755  70020.00000  0    1573352.767   -5778240.764    3741580.779
10 0 59755  70200.00000  0    1426488.447   -6428984.160    2549488.816
10 0 59755  70380.00000  0    1213735.677   -6840931.747    1263897.221
10 0 59755  70560.00000  0     949303.794   -6997394.617     -68074.845
10 0 59755  70740.00000  0     649619.264   -6891480.528   -1397548.870
10 0 59755  70920.00000  0     332452.909   -6526409.569   -2675741.493
10 0 59755  71100.00000  0      15995.296   -5915397.978   -3855806.907
10 0 59755  71280.00000  0    -282072.695   -5081129.803   -4894590.133
10 0 59755  71460.00000  0    -545467.756   -4054842.321   -5754213.896
10 0 59755  71640.00000  0    -760104.403   -2875084.182   -6403436.943
10 0 59755  71820.00000  0    -914770.424   -1586210.028   -6818744.954
10 0 59755  72000.00000  0   -1001651.575    -236681.160   -6985147.920
10 0 59755  72180.00000  0   -1016687.114    1122760.861   -6896675.152
10 0 59755  72360.00000  0    -959744.117    2440985.428   -6556564.178
10 0 59755  72540.00000  0    -834607.513    3668373.355   -5977148.677
10 0 59755  72720.00000  0    -648785.441    4758676.989   -5179446.228
10 0 59755  72900.00000  0    -413135.419    5670778.501   -4192443.737
10 0 59755  73080.00000  0    -141325.901    6370282.548   -3052089.674
10 0 59755  73260.00000  0     150847.911    6830871.959   -1800013.872
10 0 59755  73440.00000  0     446264.551    7035362.813    -482013.462
10 0 59755  73620.00000  0     727355.778    6976399.772     853644.256
10 0 59755  73800.00000  0     977020.398    6656746.575    2158031.622
10 0 59755  73980.00000  0    1179518.329    6089152.489    3383398.213
10 0 59755  74160.00000  0    1321299.261    5295810.607    4484952.039
10 0 59755  74340.00000  0    1391730.056    4307436.535    5422514.255
10 0 59755  74520.00000  0    1383676.767    3162009.995    6161973.725
10 0 59755  74700.00000  0    1293920.792    1903264.213    6676483.918
10 0 59755  74880.00000  0    1123392.451     578989.338    6947390.442
10 0 59755  75060.00000  0     877214.310    -760785.947    6964861.614
10 0 59755  75240.00000  0     564553.010   -2065667.037    6728223.021
10 0 59755  75420.00000  0     198281.568   -3286773.127    6245989.415
10 0 59755  75600.00000  0    -205537.470   -4378562.285    5535583.134
10 0 59755  75780.00000  0    -628326.931   -5300534.577    4622748.111
10 0 59755  75960.00000  0   -1049809.094   -6018771.937    3540678.574
10 0 59755  76140.00000  0   -1448934.254   -6507253.049    2328853.297
10 0 59755  76320.00000  0   -1804878.886   -6748867.677    1031610.538
10 0 59755  76500.00000  0   -2098067.964   -6736081.138    -303489.354
10 0 59755  76680.00000  0   -2311162.460   -6471200.667   -1627451.808
10 0 59755  76860.00000  0   -2429959.939   -5966228.217   -2891700.681
10 0 59755  77040.00000  0   -2444163.043   -5242306.284   -4049913.501
10 0 59755  77220.00000  0   -2347972.479   -4328783.833   -5059753.223
10 0 59755  77400.00000  0   -2140475.582   -3261963.024   -5884416.696
10 0 59755  77580.00000  0   -1825817.833   -2083600.074   -6493949.286
10 0 59755  77760.00000  0   -1413150.649    -839228.799   -6866287.504
10 0 59755  77940.00000  0    -916362.358     423617.236   -6988001.527
10 0 59755  78120.00000  0    -353606.361    1657212.727   -6854734.305
10 0 59755  78300.00000  0     253359.272    2815422.656   -6471339.330
10 0 59755  78480.00000  0     880000.592    3855411.255   -5851718.840
10 0 59755  78660.00000  0    1499985.060    4739227.982   -5018355.834
10 0 59755  78840.00000  0    2086270.541    5435214.434   -4001546.596
10 0 59755  79020.00000  0    2612268.590    5919182.903   -2838342.782
10 0 59755  79200.00000  0    3053032.297    6175310.484   -1571227.624
10 0 59755  79380.00000  0    3386415.184    6196705.117    -246563.983
10 0 59755  79560.00000  0    3594137.723    5985603.669    1087130.784
10 0 59755  79740.00000  0    3662704.556    5553187.246    2381003.108
10 0 59755  79920.00000  0    3584126.401    4919027.780    3587695.099
10 0 59755  80100.00000  0    3356407.893    4110190.065    4663111.680
10 0 59755  80280.00000  0    2983777.394    3160041.748    5568043.092
10 0 59755  80460.00000  0    2476643.924    2106835.292    6269576.965
10 0 59755  80640.00000  0    1851303.802     992139.241    6742251.252
10 0 59755  80820.00000  0    1129405.230    -140813.664    6968929.089
10 0 59755  81000.00000  0     337192.640   -1248792.832    6941378.228
10 0 59755  81180.00000  0    -495442.766   -2290204.321    6660553.726
10 0 59755  81360.00000  0   -1336080.236   -3226641.236    6136569.767
10 0 59755  81540.00000  0   -2151012.633   -4024296.050    5388363.200
10 0 59755  81720.00000  0   -2906583.385   -4655196.806    4443065.855
10 0 59755  81900.00000  0   -3570583.043   -5098229.193    3335077.394
10 0 59755  82080.00000  0   -4113634.948   -5339891.027    2104846.530
10 0 59755  82260.00000  0   -4510503.568   -5374741.834     797404.029
10 0 59755  82440.00000  0   -4741267.075   -5205521.164    -539304.230
10 0 59755  82620.00000  0   -4792288.879   -4842921.801   -1856219.807
10 0 59755  82800.00000  0   -4656929.722   -4305022.353   -3105031.949
10 0 59755  82980.00000  0   -4335957.922   -3616407.002   -4240001.133
10 0 59755  83160.00000  0   -3837642.243   -2807029.638   -5219660.414
10 0 59755  83340.00000  0   -3177529.515   -1910885.214   -6008327.942
10 0 59755  83520.00000  0   -2377923.965    -964557.050   -6577375.966
10 0 59755  83700.00000  0   -1467096.362      -5708.545   -6906221.117
10 0 59755  83880.00000  0    -478260.360     928413.784   -6983011.070
10 0 59755  84060.00000  0     551638.697    1802410.527   -6805010.386
10 0 59755  84240.00000  0    1583289.366    2584053.111   -6378688.426
10 0 59755  84420.00000  0    2576501.005    3245465.504   -5719504.366
10 0 59755  84600.00000  0    3491760.782    3764123.745   -4851382.713
10 0 59755  84780.00000  0    4291807.610    4123640.680   -3805894.394
10 0 59755  84960.00000  0    4943169.698    4314308.431   -2621151.766
10 0 59755  85140.00000  0    5417593.914    4333366.807   -1340439.230
99
